NORAD_CAT_ID,OBJECT_NAME,OBJECT_TYPE,EPOCH,MEAN_MOTION,ECCENTRICITY,INCLINATION,RA_OF_ASC_NODE,ARG_OF_PERICENTER,MEAN_ANOMALY,BSTAR,MEAN_MOTION_DOT,MEAN_MOTION_DDOT,TLE_LINE0,TLE_LINE1,TLE_LINE2,SEMIMAJOR_AXIS,PERIOD,APOGEE,PERIGEE,DECAYED
55765.0,STARLINK-5595,PAYLOAD,2024-02-24 16:18:33,14.98339012,0.0002723,69.9993,300.5302,273.4909,86.5938,-0.00015951,-1.996e-05,0.0,0 STARLINK-5595,1 55765U 23028AA  24055.67955168 -.00001996  00000-0 -15951-3 0  9997,2 55765  69.9993 300.5302 0002723 273.4909  86.5938 14.98339012 55072,6950.165,96.106,573.923,570.137,0.0
55765.0,STARLINK-5595,PAYLOAD,2024-02-25 09:56:03,14.98317101,0.0002963,69.9989,298.6792,273.7192,86.3629,-0.00023583,-2.905e-05,0.0,0 STARLINK-5595,1 55765U 23028AA  24056.41393101 -.00002905  00000-0 -23583-3 0  9994,2 55765  69.9989 298.6792 0002963 273.7192  86.3629 14.98317101 55182,6950.233,96.108,574.157,570.038,0.0
55765.0,STARLINK-5595,PAYLOAD,2024-02-25 19:32:51,14.98326775,0.0002853,69.999,297.6689,273.7833,86.2999,5.2174e-05,5.3e-06,0.0,0 STARLINK-5595,1 55765U 23028AA  24056.81448076  .00000530  00000-0  52174-4 0  9999,2 55765  69.9990 297.6689 0002853 273.7833  86.2999 14.98326775 55241,6950.203,96.107,574.051,570.085,0.0
55765.0,STARLINK-5595,PAYLOAD,2024-02-25 22:45:06,14.98330788,0.0002976,69.9987,297.332,272.1204,87.9615,6.4816e-05,6.8e-06,0.0,0 STARLINK-5595,1 55765U 23028AA  24056.94799719  .00000680  00000-0  64816-4 0  9998,2 55765  69.9987 297.3320 0002976 272.1204  87.9615 14.98330788 55272,6950.19,96.107,574.124,569.987,0.0
55765.0,STARLINK-5595,PAYLOAD,2024-02-26 01:57:22,14.98334925,0.0002812,69.9987,296.9945,271.7101,88.3735,0.00010881,1.206e-05,0.0,0 STARLINK-5595,1 55765U 23028AA  24057.08151319  .00001206  00000-0  10881-3 0  9999,2 55765  69.9987 296.9945 0002812 271.7101  88.3735 14.98334925 55286,6950.178,96.107,573.997,570.088,0.0
55765.0,STARLINK-5595,PAYLOAD,2024-02-26 19:34:52,14.98299276,0.0003214,69.9986,295.1428,266.6123,93.4668,0.00065598,7.737e-05,0.0,0 STARLINK-5595,1 55765U 23028AA  24057.81588039  .00007737  00000-0  65598-3 0  9993,2 55765  69.9986 295.1428 0003214 266.6123  93.4668 14.98299276 55399,6950.288,96.109,574.387,569.919,0.0
55765.0,STARLINK-5595,PAYLOAD,2024-02-26 22:47:07,14.98332014,0.000295,69.9985,294.8067,266.3596,93.7226,0.00018796,2.15e-05,0.0,0 STARLINK-5595,1 55765U 23028AA  24057.94939068  .00002150  00000-0  18796-3 0  9991,2 55765  69.9985 294.8067 0002950 266.3596  93.7226 14.98332014 55425,6950.187,96.107,574.102,570.001,0.0
55765.0,STARLINK-5595,PAYLOAD,2024-02-27 01:59:23,14.98331174,0.0002471,69.9988,294.4705,270.6446,89.443,0.00024434,2.824e-05,0.0,0 STARLINK-5595,1 55765U 23028AA  24058.08291047  .00002824  00000-0  24434-3 0  9999,2 55765  69.9988 294.4705 0002471 270.6446  89.4430 14.98331174 55439,6950.189,96.107,573.772,570.337,0.0
55765.0,STARLINK-5595,PAYLOAD,2024-02-27 08:23:56,14.98333904,0.0002116,70.0003,293.7957,272.8258,87.2659,-7.2693e-07,-1.02e-06,0.0,0 STARLINK-5595,1 55765U 23028AA  24058.34995853 -.00000102  00000-0 -72693-6 0  9996,2 55765  70.0003 293.7957 0002116 272.8258  87.2659 14.98333904 55489,6950.181,96.107,573.516,570.575,0.0
55765.0,STARLINK-5595,PAYLOAD,2024-02-27 19:36:52,14.98333297,0.0002501,69.9989,292.6187,269.7709,90.3163,-1.7676e-05,-3.04e-06,0.0,0 STARLINK-5595,1 55765U 23028AA  24058.81727650 -.00000304  00000-0 -17676-4 0  9998,2 55765  69.9989 292.6187 0002501 269.7709  90.3163 14.98333297 55543,6950.183,96.107,573.786,570.309,0.0
55765.0,STARLINK-5595,PAYLOAD,2024-02-27 22:49:08,14.98334813,0.0002553,69.9985,292.2826,267.444,92.6427,-4.464e-05,-6.26e-06,0.0,0 STARLINK-5595,1 55765U 23028AA  24058.95079575 -.00000626  00000-0 -44640-4 0  9997,2 55765  69.9985 292.2826 0002553 267.4440  92.6427 14.98334813 55575,6950.178,96.107,573.817,570.269,0.0
55765.0,STARLINK-5595,PAYLOAD,2024-02-28 13:14:21,14.98327284,0.0002909,69.9983,290.7657,269.3228,90.7598,-0.00014405,-1.811e-05,0.0,0 STARLINK-5595,1 55765U 23028AA  24059.55163864 -.00001811  00000-0 -14405-3 0  9991,2 55765  69.9983 290.7657 0002909 269.3228  90.7598 14.98327284 55660,6950.201,96.107,574.088,570.044,0.0
55765.0,STARLINK-5595,PAYLOAD,2024-02-28 19:38:53,14.98333776,0.0002784,69.9976,290.093,268.4167,91.6673,-0.00010206,-1.311e-05,0.0,0 STARLINK-5595,1 55765U 23028AA  24059.81867342 -.00001311  00000-0 -10206-3 0  9992,2 55765  69.9976 290.0930 0002784 268.4167  91.6673 14.98333776 55692,6950.181,96.107,573.981,570.111,0.0
55765.0,STARLINK-5595,PAYLOAD,2024-02-28 22:51:09,14.98337586,0.0002907,69.9973,289.7555,276.6278,83.455,-4.8673e-05,-6.74e-06,0.0,0 STARLINK-5595,1 55765U 23028AA  24059.95218939 -.00000674  00000-0 -48673-4 0  9990,2 55765  69.9973 289.7555 0002907 276.6278  83.4550 14.98337586 55728,6950.169,96.107,574.055,570.014,0.0
55765.0,STARLINK-5595,PAYLOAD,2024-02-29 08:27:57,14.98334505,0.0002447,69.9987,288.7463,272.253,87.8348,-2.6583e-05,-4.1e-06,0.0,0 STARLINK-5595,1 55765U 23028AA  24060.35274964 -.00000410  00000-0 -26583-4 0  9990,2 55765  69.9987 288.7463 0002447 272.2530  87.8348 14.98334505 55789,6950.179,96.107,573.745,570.343,0.0
55765.0,STARLINK-5595,PAYLOAD,2024-02-29 19:40:54,14.98330394,0.0002644,69.998,287.5679,271.5142,88.5714,5.754e-06,-2.4e-07,0.0,0 STARLINK-5595,1 55765U 23028AA  24060.82006974 -.00000024  00000-0  57540-5 0  9994,2 55765  69.9980 287.5679 0002644 271.5142  88.5714 14.98330394 55842,6950.192,96.107,573.894,570.219,0.0
55765.0,STARLINK-5595,PAYLOAD,2024-02-29 21:17:02,14.98330681,0.0002608,69.9981,287.3995,271.8155,88.2706,8.7691e-06,1.2e-07,0.0,0 STARLINK-5595,1 55765U 23028AA  24060.88682948  .00000012  00000-0  87691-5 0  9997,2 55765  69.9981 287.3995 0002608 271.8155  88.2706 14.98330681 55868,6950.191,96.107,573.868,570.243,0.0
55765.0,STARLINK-5595,PAYLOAD,2024-03-01 08:29:58,14.9832897,0.000247,69.9985,286.2216,278.2824,81.8055,-3.7352e-05,-5.39e-06,0.0,0 STARLINK-5595,1 55765U 23028AA  24061.35415183 -.00000539  00000-0 -37352-4 0  9999,2 55765  69.9985 286.2216 0002470 278.2824  81.8055 14.98328970 55939,6950.196,96.107,573.778,570.344,0.0
55765.0,STARLINK-5595,PAYLOAD,2024-03-01 19:42:54,14.98354626,0.0002696,69.9983,285.0434,273.9311,86.154,-0.00050754,-6.147e-05,0.0,0 STARLINK-5595,1 55765U 23028AA  24061.82146455 -.00006147  00000-0 -50754-3 0  9995,2 55765  69.9983 285.0434 0002696 273.9311  86.1540 14.98354626 55999,6950.117,96.105,573.855,570.108,0.0
55765.0,STARLINK-5595,PAYLOAD,2024-03-01 21:19:03,14.9832109,0.0002847,69.9984,284.8749,268.2781,91.8052,9.9324e-05,1.092e-05,0.0,0 STARLINK-5595,1 55765U 23028AA  24061.88823218  .00001092  00000-0  99324-4 0  9999,2 55765  69.9984 284.8749 0002847 268.2781  91.8052 14.98321090 56016,6950.22,96.108,574.064,570.107,0.0
55765.0,STARLINK-5595,PAYLOAD,2024-03-02 00:31:19,14.9830431,0.0002703,69.9983,284.5383,267.7368,92.3482,0.00040201,4.704e-05,0.0,0 STARLINK-5595,1 55765U 23028AA  24062.02175719  .00004704  00000-0  40201-3 0  9994,2 55765  69.9983 284.5383 0002703 267.7368  92.3482 14.98304310 56022,6950.272,96.109,574.016,570.259,0.0
55765.0,STARLINK-5595,PAYLOAD,2024-03-02 19:44:56,14.98326326,0.000263,69.9979,282.5172,269.5416,90.5441,-4.1116e-05,-5.83e-06,0.0,0 STARLINK-5595,1 55765U 23028AA  24062.82287351 -.00000583  00000-0 -41116-4 0  9998,2 55765  69.9979 282.5172 0002630 269.5416  90.5441 14.98326326 56143,6950.204,96.107,573.897,570.241,0.0
55765.0,STARLINK-5595,PAYLOAD,2024-03-02 21:21:04,14.98325577,0.0002565,69.998,282.349,267.6939,92.3926,-2.8429e-05,-4.32e-06,0.0,0 STARLINK-5595,1 55765U 23028AA  24062.88963377 -.00000432  00000-0 -28429-4 0  9998,2 55765  69.9980 282.3490 0002565 267.6939  92.3926 14.98325577 56169,6950.207,96.107,573.854,570.289,0.0
55765.0,STARLINK-5595,PAYLOAD,2024-03-03 14:58:32,14.9833047,0.0002648,69.9976,280.4968,268.3207,91.7648,4.84e-05,4.85e-06,0.0,0 STARLINK-5595,1 55765U 23028AA  24063.62398901  .00000485  00000-0  48400-4 0  9993,2 55765  69.9976 280.4968 0002648 268.3207  91.7648 14.98330470 56275,6950.191,96.107,573.897,570.216,0.0
55765.0,STARLINK-5595,PAYLOAD,2024-03-03 18:10:48,14.98331145,0.000264,69.9976,280.16,268.1682,91.9175,5.3037e-05,5.4e-06,0.0,0 STARLINK-5595,1 55765U 23028AA  24063.75750838  .00000540  00000-0  53037-4 0  9992,2 55765  69.9976 280.1600 0002640 268.1682  91.9175 14.98331145 56280,6950.189,96.107,573.889,570.22,0.0
55765.0,STARLINK-5595,PAYLOAD,2024-03-03 21:23:04,14.98333402,0.0002659,69.9975,279.8227,271.8015,88.284,6.7726e-05,7.15e-06,0.0,0 STARLINK-5595,1 55765U 23028AA  24063.89102668  .00000715  00000-0  67726-4 0  9993,2 55765  69.9975 279.8227 0002659 271.8015  88.2840 14.98333402 56310,6950.182,96.107,573.895,570.199,0.0
55765.0,STARLINK-5595,PAYLOAD,2024-03-04 15:00:33,14.98334876,0.0002687,69.9975,277.9713,273.7995,86.2857,9.146e-05,9.99e-06,0.0,0 STARLINK-5595,1 55765U 23028AA  24064.62538265  .00000999  00000-0  91460-4 0  9997,2 55765  69.9975 277.9713 0002687 273.7995  86.2857 14.98334876 56422,6950.178,96.107,573.91,570.175,0.0
55765.0,STARLINK-5595,PAYLOAD,2024-03-04 19:48:57,14.98335463,0.0002695,69.9977,277.4663,274.2823,85.8028,8.99e-05,9.8e-06,0.0,0 STARLINK-5595,1 55765U 23028AA  24064.82566156  .00000980  00000-0  89900-4 0  9995,2 55765  69.9977 277.4663 0002695 274.2823  85.8028 14.98335463 56448,6950.176,96.107,573.914,570.168,0.0
55765.0,STARLINK-5595,PAYLOAD,2024-03-04 23:01:13,14.98336652,0.0002681,69.9978,277.1296,274.3435,85.7417,9.9539e-05,1.095e-05,0.0,0 STARLINK-5595,1 55765U 23028AA  24064.95917994  .00001095  00000-0  99539-4 0  9996,2 55765  69.9978 277.1296 0002681 274.3435  85.7417 14.98336652 56478,6950.172,96.107,573.901,570.174,0.0
55765.0,STARLINK-5595,PAYLOAD,2024-03-05 15:02:34,14.98328355,0.0002275,69.9983,275.4451,265.4511,94.6389,-5.1669e-05,-7.09e-06,0.0,0 STARLINK-5595,1 55765U 23028AA  24065.62678736 -.00000709  00000-0 -51669-4 0  9994,2 55765  69.9983 275.4451 0002275 265.4511  94.6389 14.98328355 56572,6950.198,96.107,573.644,570.482,0.0
